NORAD_CAT_ID,OBJECT_NAME,OBJECT_TYPE,EPOCH,MEAN_MOTION,ECCENTRICITY,INCLINATION,RA_OF_ASC_NODE,ARG_OF_PERICENTER,MEAN_ANOMALY,BSTAR,MEAN_MOTION_DOT,MEAN_MOTION_DDOT,TLE_LINE0,TLE_LINE1,TLE_LINE2,SEMIMAJOR_AXIS,PERIOD,APOGEE,PERIGEE,DECAYED
49174.0,STARLINK-3047,PAYLOAD,2021-10-20 14:00:01,15.69698578,0.0003654,70.002,24.3219,289.5378,188.637,0.00035904,0.0004278,0.0,0 STARLINK-3047,1 49174U 21082AW  21293.58334491  .00042780  00000-0  35904-3 0  9997,2 49174  70.0020  24.3219 0003654 289.5378 188.6370 15.69698578  6998,6737.896,91.737,362.223,357.2990000000001,0.0
49174.0,STARLINK-3047,PAYLOAD,2021-10-20 22:00:00,15.69744595,0.0003579,70.002,23.385,288.7827,272.4622,-0.00031715,-0.00037896,0.0,0 STARLINK-3047,1 49174U 21082AW  21293.91667824 -.00037896  00000-0 -31715-3 0  9993,2 49174  70.0020  23.3850 0003579 288.7827 272.4622 15.69744595  3668,6737.765,91.735,362.041,357.218,0.0
49174.0,STARLINK-3047,PAYLOAD,2021-10-21 06:00:00,15.69738388,0.000355,70.0025,22.4484,284.0326,0.3087,0.00027319,0.00032513,0.0,0 STARLINK-3047,1 49174U 21082AW  21294.25001157  .00032513  00000-0  27319-3 0  9996,2 49174  70.0025  22.4484 0003550 284.0326   0.3087 15.69738388  7107,6737.783,91.735,362.039,357.256,0.0
49174.0,STARLINK-3047,PAYLOAD,2021-10-21 14:00:01,15.69741056,0.0003712,70.0024,21.5116,289.7943,77.6757,0.00027577,0.00032828,0.0,0 STARLINK-3047,1 49174U 21082AW  21294.58334491  .00032828  00000-0  27577-3 0  9997,2 49174  70.0024  21.5116 0003712 289.7943  77.6757 15.69741056  3692,6737.775,91.735,362.141,357.139,0.0
49174.0,STARLINK-3047,PAYLOAD,2021-10-21 20:00:01,15.69779638,0.000376,70.002,20.8089,289.2156,50.5895,-0.00027667,-0.00033154,0.0,0 STARLINK-3047,1 49174U 21082AW  21294.83334491 -.00033154  00000-0 -27667-3 0  9990,2 49174  70.0020  20.8089 0003760 289.2156  50.5895 15.69779638  7192,6737.6640000000025,91.733,362.06300000000016,356.996,0.0
49174.0,STARLINK-3047,PAYLOAD,2021-10-21 22:00:00,15.6977555,0.0003714,70.002,20.5746,287.6576,162.9362,-0.00025068,-0.00030065,0.0,0 STARLINK-3047,1 49174U 21082AW  21294.91667824 -.00030065  00000-0 -25068-3 0  9999,2 49174  70.0020  20.5746 0003714 287.6576 162.9362 15.69775550  3671,6737.676,91.733,362.044,357.039,0.0
49174.0,STARLINK-3047,PAYLOAD,2021-10-22 06:00:02,15.69778953,0.0003644,70.0022,19.6379,283.3966,250.4021,0.00018022,0.00021384,0.0,0 STARLINK-3047,1 49174U 21082AW  21295.25002315  .00021384  00000-0  18022-3 0  9999,2 49174  70.0022  19.6379 0003644 283.3966 250.4021 15.69778953  7255,6737.666,91.733,361.987,357.076,0.0
49174.0,STARLINK-3047,PAYLOAD,2021-10-22 14:00:01,15.69762282,0.0003772,70.0019,18.7009,290.2854,326.6221,0.00040575,0.00048535,0.0,0 STARLINK-3047,1 49174U 21082AW  21295.58334491  .00048535  00000-0  40575-3 0  9993,2 49174  70.0019  18.7009 0003772 290.2854 326.6221 15.69762282  3674,6737.714,91.734,362.121,357.038,0.0
49174.0,STARLINK-3047,PAYLOAD,2021-10-22 20:00:01,15.69825512,0.0003794,70.0016,17.9982,289.1434,300.1235,-0.00056252,-0.00067047,0.0,0 STARLINK-3047,1 49174U 21082AW  21295.83334491 -.00067047  00000-0 -56252-3 0  9991,2 49174  70.0016  17.9982 0003794 289.1434 300.1235 15.69825512  7354,6737.533,91.73,361.954,356.842,0.0
49174.0,STARLINK-3047,PAYLOAD,2021-10-22 22:00:01,15.69827819,0.0003807,70.0018,17.7638,287.6357,52.495,-0.0007795,-0.00092557,0.0,0 STARLINK-3047,1 49174U 21082AW  21295.91668981 -.00092557  00000-0 -77950-3 0  9996,2 49174  70.0018  17.7638 0003807 287.6357  52.4950 15.69827819  3667,6737.526999999999,91.73,361.957,356.827,0.0
49174.0,STARLINK-3047,PAYLOAD,2021-10-23 06:00:00,15.6976426,0.0003891,70.0022,16.827,283.6453,139.6083,1.7256e-05,1.849e-05,0.0,0 STARLINK-3047,1 49174U 21082AW  21296.25001157  .00001849  00000-0  17256-4 0  9996,2 49174  70.0022  16.8270 0003891 283.6453 139.6083 15.69764260  3687,6737.708000000001,91.734,362.195,356.952,0.0
49174.0,STARLINK-3047,PAYLOAD,2021-10-23 14:00:01,15.69744873,0.0004067,70.0021,15.8901,288.8701,217.5312,0.00034985,0.00041758,0.0,0 STARLINK-3047,1 49174U 21082AW  21296.58334491  .00041758  00000-0  34985-3 0  9992,2 49174  70.0021  15.8901 0004067 288.8701 217.5312 15.69744873  7464,6737.764,91.735,362.369,356.889,0.0
49174.0,STARLINK-3047,PAYLOAD,2021-10-23 22:00:00,15.69898987,0.000391,70.0007,14.9478,286.4158,303.1134,-0.0051661,-0.0057987,0.0,0 STARLINK-3047,1 49174U 21082AW  21296.91667824 -.00579870  00000-0 -51661-2 0  9990,2 49174  70.0007  14.9478 0003910 286.4158 303.1134 15.69898987  7520,6737.323,91.726,361.822,356.55400000000014,0.0
49174.0,STARLINK-3047,PAYLOAD,2021-10-24 06:00:00,15.69810399,0.0003888,70.0018,14.0163,283.6137,29.0695,-0.00085166,-0.00100935,0.0,0 STARLINK-3047,1 49174U 21082AW  21297.25001157 -.00100935  00000-0 -85166-3 0  9999,2 49174  70.0018  14.0163 0003888 283.6137  29.0695 15.69810399  7576,6737.576,91.731,362.061,356.82199999999995,0.0
49174.0,STARLINK-3047,PAYLOAD,2021-10-24 14:00:01,15.69710356,0.0003858,70.0014,13.0793,290.4182,105.4258,0.00039844,0.0004755,0.0,0 STARLINK-3047,1 49174U 21082AW  21297.58334491  .00047550  00000-0  39844-3 0  9998,2 49174  70.0014  13.0793 0003858 290.4182 105.4258 15.69710356  3676,6737.863,91.737,362.327,357.12800000000016,0.0
49174.0,STARLINK-3047,PAYLOAD,2021-10-24 22:00:00,15.69749103,0.0003835,70.0012,12.1422,287.9895,190.9583,-9.2911e-05,-0.0001129,0.0,0 STARLINK-3047,1 49174U 21082AW  21297.91667824 -.00011290  00000-0 -92911-4 0  9993,2 49174  70.0012  12.1422 0003835 287.9895 190.9583 15.69749103  7676,6737.752,91.734,362.201,357.033,0.0
49174.0,STARLINK-3047,PAYLOAD,2021-10-25 06:00:02,15.69762056,0.0003742,70.0016,11.2053,284.4909,277.6198,9.5e-05,0.0001115,0.0,0 STARLINK-3047,1 49174U 21082AW  21298.25002315  .00011150  00000-0  95000-4 0  9994,2 49174  70.0016  11.2053 0003742 284.4909 277.6198 15.69762056  3689,6737.715,91.734,362.101,357.059,0.0
49174.0,STARLINK-3047,PAYLOAD,2021-10-25 12:00:00,15.69779082,0.0003792,70.0015,10.5025,289.7941,244.6174,-0.00034134,-0.00040816,0.0,0 STARLINK-3047,1 49174U 21082AW  21298.50001157 -.00040816  00000-0 -34134-3 0  9998,2 49174  70.0015  10.5025 0003792 289.7941 244.6174 15.69779082  7766,6737.666,91.733,362.086,356.976,0.0
49174.0,STARLINK-3047,PAYLOAD,2021-10-26 04:00:01,15.69720108,0.0003503,70.0013,8.6287,285.936,54.792,0.00044022,0.00052607,0.0,0 STARLINK-3047,1 49174U 21082AW  21299.16668981  .00052607  00000-0  44022-3 0  9991,2 49174  70.0013   8.6287 0003503 285.9360  54.7920 15.69720108  7871,6737.835,91.736,362.06,357.34,0.0
49174.0,STARLINK-3047,PAYLOAD,2021-10-26 12:00:00,15.6973535,0.0003649,70.001,7.6918,291.2814,132.4989,0.00020661,0.00024511,0.0,0 STARLINK-3047,1 49174U 21082AW  21299.50001157  .00024511  00000-0  20661-3 0  9991,2 49174  70.0010   7.6918 0003649 291.2814 132.4989 15.69735350  7923,6737.791,91.735,362.115,357.1980000000001,0.0
49174.0,STARLINK-3047,PAYLOAD,2021-10-26 14:00:04,15.69724046,0.000369,70.001,7.4574,292.6997,242.06,0.00050444,0.00060381,0.0,0 STARLINK-3047,1 49174U 21082AW  21299.58337963  .00060381  00000-0  50444-3 0  9993,2 49174  70.0010   7.4574 0003690 292.6997 242.0600 15.69724046  3667,6737.824000000001,91.736,362.175,357.202,0.0
49174.0,STARLINK-3047,PAYLOAD,2021-10-27 04:00:00,15.69752769,0.0003755,70.001,5.8176,285.0109,305.0421,-0.00022217,-0.00026656,0.0,0 STARLINK-3047,1 49174U 21082AW  21300.16667824 -.00026656  00000-0 -22217-3 0  9998,2 49174  70.0010   5.8176 0003755 285.0109 305.0421 15.69752769  8030,6737.741,91.734,362.136,357.076,0.0
49174.0,STARLINK-3047,PAYLOAD,2021-10-27 14:00:01,15.69711444,0.000397,70.0013,4.6461,290.9174,133.0372,0.00048935,0.00058528,0.0,0 STARLINK-3047,1 49174U 21082AW  21300.58334491  .00058528  00000-0  48935-3 0  9991,2 49174  70.0013   4.6461 0003970 290.9174 133.0372 15.69711444  3677,6737.86,91.737,362.4,357.05,0.0
49174.0,STARLINK-3047,PAYLOAD,2021-10-27 20:00:01,15.69760869,0.0003887,70.0009,3.9435,289.3105,106.9669,-0.00026372,-0.00031595,0.0,0 STARLINK-3047,1 49174U 21082AW  21300.83334491 -.00031595  00000-0 -26372-3 0  9997,2 49174  70.0009   3.9435 0003887 289.3105 106.9669 15.69760869  8137,6737.718000000003,91.734,362.202,356.964,0.0
49174.0,STARLINK-3047,PAYLOAD,2021-10-28 06:00:00,15.69811849,0.0003754,70.0012,2.7726,286.0477,304.1354,-0.00088377,-0.00104689,0.0,0 STARLINK-3047,1 49174U 21082AW  21301.25001157 -.00104689  00000-0 -88377-3 0  9992,2 49174  70.0012   2.7726 0003754 286.0477 304.1354 15.69811849  8206,6737.571999999999,91.731,361.967,356.908,0.0
49174.0,STARLINK-3047,PAYLOAD,2021-10-28 14:00:01,15.69700415,0.000376,70.0009,1.8354,293.3416,20.0774,0.00051814,0.00061979,0.0,0 STARLINK-3047,1 49174U 21082AW  21301.58335648  .00061979  00000-0  51814-3 0  9991,2 49174  70.0009   1.8354 0003760 293.3416  20.0774 15.69700415  3661,6737.891,91.737,362.29,357.223,0.0
49174.0,STARLINK-3047,PAYLOAD,2021-10-28 22:00:00,15.69719103,0.0003682,70.0009,0.8983,288.8357,107.6158,0.00026479,0.00031478,0.0,0 STARLINK-3047,1 49174U 21082AW  21301.91667824  .00031478  00000-0  26479-3 0  9992,2 49174  70.0009   0.8983 0003682 288.8357 107.6158 15.69719103  8302,6737.8380000000025,91.736,362.184,357.222,0.0
49174.0,STARLINK-3047,PAYLOAD,2021-10-29 06:00:00,15.69748461,0.0003834,70.0002,359.9527,292.5917,186.7555,-2.0887e-05,-2.705e-05,0.0,0 STARLINK-3047,1 49174U 21082AW  21302.25001157 -.00002705  00000-0 -20887-4 0  9992,2 49174  70.0002 359.9527 0003834 292.5917 186.7555 15.69748461  8353,6737.754,91.734,362.202,357.035,0.0
49174.0,STARLINK-3047,PAYLOAD,2021-10-29 14:00:01,15.69693844,0.0004049,70.0013,359.0242,291.8063,270.9803,0.00053837,0.00064412,0.0,0 STARLINK-3047,1 49174U 21082AW  21302.58335648  .00064412  00000-0  53837-3 0  9994,2 49174  70.0013 359.0242 0004049 291.8063 270.9803 15.69693844  3668,6737.91,91.738,362.503,357.047,0.0
